start=new Date('2022-01-04T00:00:00.000Z').valueOf();
sats=[{"COUNTRY_CODE":"US","LAUNCH_DATE":"2021-01-20","DECAY_DATE":null,"APOAPSIS":"548.138","NORAD_CAT_ID":"47400","MEAN_MOTION":"15.06400787","OBJECT_NAME":"STARLINK-2122","TIME_SYSTEM":"UTC","CENTER_NAME":"EARTH","REF_FRAME":"TEME","RA_OF_ASC_NODE":"32.7788","TLE_LINE1":"1 47400U 21005BD  22003.53577048  .00000552  00000-0  55935-4 0  9992","MEAN_ELEMENT_THEORY":"SGP4","EPOCH":"2022-01-03T12:51:30.569472","PERIOD":"95.592","SEMIMAJOR_AXIS":"6925.346","OBJECT_TYPE":"PAYLOAD","ARG_OF_PERICENTER":"73.2941","SITE":"AFETR","INCLINATION":"53.0555","REV_AT_EPOCH":"5357","CLASSIFICATION_TYPE":"U","GP_ID":"192969104","MEAN_MOTION_DOT":"0.00000552","MEAN_ANOMALY":"286.8195","ELEMENT_SET_NO":"999","MEAN_MOTION_DDOT":"0.0000000000000","PERIAPSIS":"546.284","EPHEMERIS_TYPE":"0","RCS_SIZE":"LARGE","FILE":"3255250","BSTAR":"0.00005593500000","ECCENTRICITY":"0.00013390","OBJECT_ID":"2021-005BD","TLE_LINE2":"2 47400  53.0555  32.7788 0001339  73.2941 286.8195 15.06400787 53574"},{"DECAY_DATE":null,"LAUNCH_DATE":"2021-01-20","COUNTRY_CODE":"US","TIME_SYSTEM":"UTC","OBJECT_NAME":"STARLINK-2123","MEAN_MOTION":"15.06401109","NORAD_CAT_ID":"47401","APOAPSIS":"548.200","TLE_LINE1":"1 47401U 21005BE  22003.42153700  .00001265  00000-0  10381-3 0  9993","RA_OF_ASC_NODE":"43.3103","REF_FRAME":"TEME","CENTER_NAME":"EARTH","OBJECT_TYPE":"PAYLOAD","SEMIMAJOR_AXIS":"6925.345","PERIOD":"95.592","EPOCH":"2022-01-03T10:07:00.796800","MEAN_ELEMENT_THEORY":"SGP4","MEAN_MOTION_DDOT":"0.0000000000000","ELEMENT_SET_NO":"999","MEAN_ANOMALY":"284.9434","GP_ID":"192968357","MEAN_MOTION_DOT":"0.00001265","CLASSIFICATION_TYPE":"U","INCLINATION":"53.0561","SITE":"AFETR","REV_AT_EPOCH":"5342","ARG_OF_PERICENTER":"75.1714","FILE":"3255250","RCS_SIZE":"LARGE","EPHEMERIS_TYPE":"0","PERIAPSIS":"546.221","ECCENTRICITY":"0.00014290","BSTAR":"0.00010381000000","TLE_LINE2":"2 47401  53.0561  43.3103 0001429  75.1714 284.9434 15.06401109 53428","OBJECT_ID":"2021-005BE"},{"COUNTRY_CODE":"US","DECAY_DATE":null,"LAUNCH_DATE":"2021-01-20","APOAPSIS":"548.473","NORAD_CAT_ID":"47402","MEAN_MOTION":"15.06397963","OBJECT_NAME":"STARLINK-2124","TIME_SYSTEM":"UTC","REF_FRAME":"TEME","CENTER_NAME":"EARTH","RA_OF_ASC_NODE":"42.6271","TLE_LINE1":"1 47402U 21005BF  22003.57265988  .00001855  00000-0  14343-3 0  9999","PERIOD":"95.592","MEAN_ELEMENT_THEORY":"SGP4","EPOCH":"2022-01-03T13:44:37.813632","OBJECT_TYPE":"PAYLOAD","SEMIMAJOR_AXIS":"6925.355","MEAN_MOTION_DOT":"0.00001855","GP_ID":"192973204","CLASSIFICATION_TYPE":"U","ARG_OF_PERICENTER":"58.9815","SITE":"AFETR","REV_AT_EPOCH":"5405","INCLINATION":"53.0544","MEAN_MOTION_DDOT":"0.0000000000000","MEAN_ANOMALY":"301.1352","ELEMENT_SET_NO":"999","EPHEMERIS_TYPE":"0","RCS_SIZE":"LARGE","PERIAPSIS":"545.967","FILE":"3255308","ECCENTRICITY":"0.00018090","BSTAR":"0.00014343000000","OBJECT_ID":"2021-005BF","TLE_LINE2":"2 47402  53.0544  42.6271 0001809  58.9815 301.1352 15.06397963 54054"},{"TLE_LINE2":"2 47403  53.0553  43.4963 0001423  94.1049 266.0103 15.06404866 53418","OBJECT_ID":"2021-005BG","BSTAR":"0.00008491300000","ECCENTRICITY":"0.00014230","FILE":"3255250","PERIAPSIS":"546.213","RCS_SIZE":"LARGE","EPHEMERIS_TYPE":"0","ELEMENT_SET_NO":"999","MEAN_ANOMALY":"266.0103","MEAN_MOTION_DDOT":"0.0000000000000","REV_AT_EPOCH":"5341","SITE":"AFETR","INCLINATION":"53.0553","ARG_OF_PERICENTER":"94.1049","GP_ID":"192968858","MEAN_MOTION_DOT":"0.00000984","CLASSIFICATION_TYPE":"U","SEMIMAJOR_AXIS":"6925.334","OBJECT_TYPE":"PAYLOAD","EPOCH":"2022-01-03T09:08:37.117824","MEAN_ELEMENT_THEORY":"SGP4","PERIOD":"95.592","TLE_LINE1":"1 47403U 21005BG  22003.38098516  .00000984  00000-0  84913-4 0  9993","RA_OF_ASC_NODE":"43.4963","CENTER_NAME":"EARTH","REF_FRAME":"TEME","OBJECT_NAME":"STARLINK-2127","TIME_SYSTEM":"UTC","MEAN_MOTION":"15.06404866","APOAPSIS":"548.184","NORAD_CAT_ID":"47403","LAUNCH_DATE":"2021-01-20","DECAY_DATE":null,"COUNTRY_CODE":"US"},{"OBJECT_ID":"2021-005BH","TLE_LINE2":"2 47404  53.0549  43.8102 0001563  74.3314 285.7848 15.06402619 53400","ECCENTRICITY":"0.00015630","BSTAR":"0.00018821000000","FILE":"3255250","RCS_SIZE":"LARGE","EPHEMERIS_TYPE":"0","PERIAPSIS":"546.123","MEAN_MOTION_DDOT":"0.0000000000000","MEAN_ANOMALY":"285.7848","ELEMENT_SET_NO":"999","CLASSIFICATION_TYPE":"U","GP_ID":"192969605","MEAN_MOTION_DOT":"0.00002523","ARG_OF_PERICENTER":"74.3314","SITE":"AFETR","REV_AT_EPOCH":"5340","INCLINATION":"53.0549","OBJECT_TYPE":"PAYLOAD","SEMIMAJOR_AXIS":"6925.341","PERIOD":"95.592","MEAN_ELEMENT_THEORY":"SGP4","EPOCH":"2022-01-03T07:27:45.933120","RA_OF_ASC_NODE":"43.8102","TLE_LINE1":"1 47404U 21005BH  22003.31094830  .00002523  00000-0  18821-3 0  9997","REF_FRAME":"TEME","CENTER_NAME":"EARTH","OBJECT_NAME":"STARLINK-2128","TIME_SYSTEM":"UTC","APOAPSIS":"548.288","NORAD_CAT_ID":"47404","MEAN_MOTION":"15.06402619","DECAY_DATE":null,"LAUNCH_DATE":"2021-01-20","COUNTRY_CODE":"US"},{"FILE":"3256498","RCS_SIZE":"LARGE","EPHEMERIS_TYPE":"0","PERIAPSIS":"546.191","MEAN_MOTION_DDOT":"0.0000000000000","MEAN_ANOMALY":"283.6820","ELEMENT_SET_NO":"999","GP_ID":"193017063","MEAN_MOTION_DOT":"0.00001377","CLASSIFICATION_TYPE":"U","ARG_OF_PERICENTER":"76.4332","SITE":"AFETR","INCLINATION":"53.0475","REV_AT_EPOCH":"5303","OBJECT_ID":"2021-005BJ","TLE_LINE2":"2 47405  53.0475  72.1111 0001472  76.4332 283.6820 15.06400932 53038","ECCENTRICITY":"0.00014720","BSTAR":"0.00011131000000","TIME_SYSTEM":"UTC","OBJECT_NAME":"STARLINK-2130","APOAPSIS":"548.230","NORAD_CAT_ID":"47405","MEAN_MOTION":"15.06400932","DECAY_DATE":null,"LAUNCH_DATE":"2021-01-20","COUNTRY_CODE":"US","OBJECT_TYPE":"PAYLOAD","SEMIMAJOR_AXIS":"6925.346","PERIOD":"95.592","MEAN_ELEMENT_THEORY":"SGP4","EPOCH":"2022-01-03T16:35:47.443776","RA_OF_ASC_NODE":"72.1111","TLE_LINE1":"1 47405U 21005BJ  22003.69152134  .00001377  00000-0  11131-3 0  9994","REF_FRAME":"TEME","CENTER_NAME":"EARTH"},{"OBJECT_NAME":"STARLINK-2133","TIME_SYSTEM":"UTC","APOAPSIS":"548.006","NORAD_CAT_ID":"47406","MEAN_MOTION":"15.06400815","LAUNCH_DATE":"2021-01-20","DECAY_DATE":null,"COUNTRY_CODE":"US","SEMIMAJOR_AXIS":"6925.346","OBJECT_TYPE":"PAYLOAD","MEAN_ELEMENT_THEORY":"SGP4","EPOCH":"2022-01-03T09:19:14.012832","PERIOD":"95.592","RA_OF_ASC_NODE":"43.4470","TLE_LINE1":"1 47406U 21005BK  22003.38835663  .00000409  00000-0  46317-4 0  9996","CENTER_NAME":"EARTH","REF_FRAME":"TEME","FILE":"3255250","PERIAPSIS":"546.416","RCS_SIZE":"LARGE","EPHEMERIS_TYPE":"0","MEAN_ANOMALY":"282.4508","ELEMENT_SET_NO":"999","MEAN_MOTION_DDOT":"0.0000000000000","ARG_OF_PERICENTER":"77.6609","REV_AT_EPOCH":"5341","SITE":"AFETR","INCLINATION":"53.0562","GP_ID":"192968107","MEAN_MOTION_DOT":"0.00000409","CLASSIFICATION_TYPE":"U","OBJECT_ID":"2021-005BK","TLE_LINE2":"2 47406  53.0562  43.4470 0001148  77.6609 282.4508 15.06400815 53417","BSTAR":"0.00004631700000","ECCENTRICITY":"0.00011480"},{"BSTAR":"0.00003361700000","ECCENTRICITY":"0.00012590","TLE_LINE2":"2 47407  53.0551  43.7291 0001259  70.3644 289.7480 15.06403386 53406","OBJECT_ID":"2021-005BL","ELEMENT_SET_NO":"999","MEAN_ANOMALY":"289.7480","MEAN_MOTION_DDOT":"0.0000000000000","SITE":"AFETR","INCLINATION":"53.0551","REV_AT_EPOCH":"5340","ARG_OF_PERICENTER":"70.3644","CLASSIFICATION_TYPE":"U","GP_ID":"192969359","MEAN_MOTION_DOT":"0.00000219","FILE":"3255250","PERIAPSIS":"546.331","RCS_SIZE":"LARGE","EPHEMERIS_TYPE":"0","TLE_LINE1":"1 47407U 21005BL  22003.32938161  .00000219  00000-0  33617-4 0  9996","RA_OF_ASC_NODE":"43.7291","CENTER_NAME":"EARTH","REF_FRAME":"TEME","SEMIMAJOR_AXIS":"6925.338","OBJECT_TYPE":"PAYLOAD","EPOCH":"2022-01-03T07:54:18.571104","MEAN_ELEMENT_THEORY":"SGP4","PERIOD":"95.592","LAUNCH_DATE":"2021-01-20","DECAY_DATE":null,"COUNTRY_CODE":"US","OBJECT_NAME":"STARLINK-2134","TIME_SYSTEM":"UTC","MEAN_MOTION":"15.06403386","NORAD_CAT_ID":"47407","APOAPSIS":"548.075"},{"DECAY_DATE":null,"LAUNCH_DATE":"2021-01-20","COUNTRY_CODE":"US","OBJECT_NAME":"STARLINK-2135","TIME_SYSTEM":"UTC","APOAPSIS":"548.120","NORAD_CAT_ID":"47408","MEAN_MOTION":"15.06406237","RA_OF_ASC_NODE":"42.6543","TLE_LINE1":"1 47408U 21005BM  22003.56527886  .00002397  00000-0  17971-3 0  9994","REF_FRAME":"TEME","CENTER_NAME":"EARTH","OBJECT_TYPE":"PAYLOAD","SEMIMAJOR_AXIS":"6925.329","PERIOD":"95.592","MEAN_ELEMENT_THEORY":"SGP4","EPOCH":"2022-01-03T13:34:00.093504","MEAN_MOTION_DDOT":"0.0000000000000","MEAN_ANOMALY":"286.0240","ELEMENT_SET_NO":"999","GP_ID":"192972275","MEAN_MOTION_DOT":"0.00002397","CLASSIFICATION_TYPE":"U","ARG_OF_PERICENTER":"74.0897","SITE":"AFETR","REV_AT_EPOCH":"5405","INCLINATION":"53.0553","FILE":"3255254","EPHEMERIS_TYPE":"0","RCS_SIZE":"LARGE","PERIAPSIS":"546.269","ECCENTRICITY":"0.00013370","BSTAR":"0.00017971000000","OBJECT_ID":"2021-005BM","TLE_LINE2":"2 47408  53.0553  42.6543 0001337  74.0897 286.0240 15.06406237 54059"},{"PERIAPSIS":"300.063","RCS_SIZE":"LARGE","EPHEMERIS_TYPE":"0","FILE":"3255383","SITE":"AFETR","INCLINATION":"97.4709","REV_AT_EPOCH":"5279","ARG_OF_PERICENTER":"210.1273","CLASSIFICATION_TYPE":"U","GP_ID":"192974792","MEAN_MOTION_DOT":"-0.00029250","ELEMENT_SET_NO":"999","MEAN_ANOMALY":"195.6164","MEAN_MOTION_DDOT":"0.0000025824000","TLE_LINE2":"2 47414  97.4709  73.2388 0004658 210.1273 195.6164 15.89682354 52794","OBJECT_ID":"2021-006B","BSTAR":"-0.00009733200000","ECCENTRICITY":"0.00046580","MEAN_MOTION":"15.89682354","APOAPSIS":"306.287","NORAD_CAT_ID":"47414","OBJECT_NAME":"STARLINK-2200","TIME_SYSTEM":"UTC","COUNTRY_CODE":"US","LAUNCH_DATE":"2021-01-24","DECAY_DATE":null,"EPOCH":"2022-01-03T22:00:00.999936","MEAN_ELEMENT_THEORY":"SGP4","PERIOD":"90.584","SEMIMAJOR_AXIS":"6681.310","OBJECT_TYPE":"PAYLOAD","CENTER_NAME":"EARTH","REF_FRAME":"TEME","TLE_LINE1":"1 47414U 21006B   22003.91667824 -.00029250  25824-5 -97332-4 0  9993","RA_OF_ASC_NODE":"73.2388"}];
